{
"type": "FeatureCollection",
"name": "gangnam_pois",
"crs": { "type": "name", "properties": { "name": "urn:ogc:def:crs:OGC:1.3:CRS84" } },
"features": [
{ "type": "Feature", "properties": { "category": "school", "opening_year": 2020 }, "geometry": { "type": "Point", "coordinates": [ 127.041060095362567, 37.507001804783222 ] } },
{ "type": "Feature", "properties": { "category": "cafe", "opening_year": 2023 }, "geometry": { "type": "Point", "coordinates": [ 127.067567042419, 37.488735029630625 ] } },
{ "type": "Feature", "properties": { "category": "library", "opening_year": 2023 }, "geometry": { "type": "Point", "coordinates": [ 127.041066751612576, 37.50106412279024 ] } },
{ "type": "Feature", "properties": { "category": "library", "opening_year": 2024 }, "geometry": { "type": "Point", "coordinates": [ 127.038612504704489, 37.496964469596684 ] } },
{ "type": "Feature", "properties": { "category": "subway", "opening_year": 2025 }, "geometry": { "type": "Point", "coordinates": [ 127.043214422733584, 37.508890165354693 ] } },
{ "type": "Feature", "properties": { "category": "cafe", "opening_year": 2025 }, "geometry": { "type": "Point", "coordinates": [ 127.03079385511333, 37.499361776257459 ] } },
{ "type": "Feature", "properties": { "category": "restaurant", "opening_year": 2023 }, "geometry": { "type": "Point", "coordinates": [ 127.044861509901693, 37.501951029083713 ] } },
{ "type": "Feature", "properties": { "category": "restaurant", "opening_year": 2025 }, "geometry": { "type": "Point", "coordinates": [ 127.026916315254084, 37.494539374092149 ] } },
{ "type": "Feature", "properties": { "category": "park", "opening_year": 2022 }, "geometry": { "type": "Point", "coordinates": [ 127.026258925609824, 37.501837961170843 ] } },
{ "type": "Feature", "properties": { "category": "cafe", "opening_year": 2019 }, "geometry": { "type": "Point", "coordinates": [ 127.04162857266769, 37.501694382195097 ] } },
{ "type": "Feature", "properties": { "category": "park", "opening_year": 2023 }, "geometry": { "type": "Point", "coordinates": [ 127.051087729355032, 37.498171376720578 ] } },
{ "type": "Feature", "properties": { "category": "school", "opening_year": 2023 }, "geometry": { "type": "Point", "coordinates": [ 127.054249146492637, 37.514779765244938 ] } },
{ "type": "Feature", "properties": { "category": "shopping", "opening_year": 2024 }, "geometry": { "type": "Point", "coordinates": [ 127.053890689820079, 37.509451012260421 ] } },
{ "type": "Feature", "properties": { "category": "cafe", "opening_year": 2023 }, "geometry": { "type": "Point", "coordinates": [ 127.034307649566514, 37.498950592829338 ] } },
{ "type": "Feature", "properties": { "category": "restaurant", "opening_year": 2022 }, "geometry": { "type": "Point", "coordinates": [ 127.040500276715989, 37.500322190855989 ] } },
{ "type": "Feature", "properties": { "category": "school", "opening_year": 2023 }, "geometry": { "type": "Point", "coordinates": [ 127.053336484121971, 37.509434158764307 ] } },
{ "type": "Feature", "properties": { "category": "cafe", "opening_year": 2025 }, "geometry": { "type": "Point", "coordinates": [ 127.043328444353605, 37.502547784613739 ] } },
{ "type": "Feature", "properties": { "category": "cafe", "opening_year": 2025 }, "geometry": { "type": "Point", "coordinates": [ 127.020183585958776, 37.504549976474912 ] } },
{ "type": "Feature", "properties": { "category": "shopping", "opening_year": 2022 }, "geometry": { "type": "Point", "coordinates": [ 127.022409087092939, 37.502806806751821 ] } },
{ "type": "Feature", "properties": { "category": "bus_stop", "opening_year": 2025 }, "geometry": { "type": "Point", "coordinates": [ 127.02, 37.493911012689594 ] } },
{ "type": "Feature", "properties": { "category": "hospital", "opening_year": 2023 }, "geometry": { "type": "Point", "coordinates": [ 127.044195369786721, 37.49937494411575 ] } },
{ "type": "Feature", "properties": { "category": "restaurant", "opening_year": 2021 }, "geometry": { "type": "Point", "coordinates": [ 127.030699867670535, 37.499443867696392 ] } },
{ "type": "Feature", "properties": { "category": "subway", "opening_year": 2025 }, "geometry": { "type": "Point", "coordinates": [ 127.037826413613999, 37.498423400177209 ] } },
{ "type": "Feature", "properties": { "category": "shopping", "opening_year": 2024 }, "geometry": { "type": "Point", "coordinates": [ 127.057296057268118, 37.508887408582098 ] } },
{ "type": "Feature", "properties": { "category": "grocery", "opening_year": 2022 }, "geometry": { "type": "Point", "coordinates": [ 127.028675653809742, 37.49877998673589 ] } },
{ "type": "Feature", "properties": { "category": "cafe", "opening_year": 2026 }, "geometry": { "type": "Point", "coordinates": [ 127.036379817347324, 37.49314494778271 ] } },
{ "type": "Feature", "properties": { "category": "cafe", "opening_year": 2026 }, "geometry": { "type": "Point", "coordinates": [ 127.047639883114655, 37.511340603787261 ] } },
{ "type": "Feature", "properties": { "category": "grocery", "opening_year": 2023 }, "geometry": { "type": "Point", "coordinates": [ 127.024881083084694, 37.507852506271576 ] } },
{ "type": "Feature", "properties": { "category": "restaurant", "opening_year": 2022 }, "geometry": { "type": "Point", "coordinates": [ 127.029062771279811, 37.48 ] } },
{ "type": "Feature", "properties": { "category": "library", "opening_year": 2026 }, "geometry": { "type": "Point", "coordinates": [ 127.02, 37.503936836454336 ] } },
{ "type": "Feature", "properties": { "category": "school", "opening_year": 2022 }, "geometry": { "type": "Point", "coordinates": [ 127.021386077483058, 37.491201268221182 ] } },
{ "type": "Feature", "properties": { "category": "cafe", "opening_year": 2026 }, "geometry": { "type": "Point", "coordinates": [ 127.066507579481467, 37.509321098085891 ] } },
{ "type": "Feature", "properties": { "category": "restaurant", "opening_year": 2026 }, "geometry": { "type": "Point", "coordinates": [ 127.030609299426601, 37.497899095741857 ] } },
{ "type": "Feature", "properties": { "category": "restaurant", "opening_year": 2023 }, "geometry": { "type": "Point", "coordinates": [ 127.041882436931488, 37.507726292051494 ] } },
{ "type": "Feature", "properties": { "category": "cafe", "opening_year": 2023 }, "geometry": { "type": "Point", "coordinates": [ 127.032471273827426, 37.502584288805927 ] } },
{ "type": "Feature", "properties": { "category": "subway", "opening_year": 2026 }, "geometry": { "type": "Point", "coordinates": [ 127.067835527506332, 37.496316365025642 ] } },
{ "type": "Feature", "properties": { "category": "school", "opening_year": 2022 }, "geometry": { "type": "Point", "coordinates": [ 127.030836010450244, 37.505377530005454 ] } },
{ "type": "Feature", "properties": { "category": "bus_stop", "opening_year": 2021 }, "geometry": { "type": "Point", "coordinates": [ 127.036814535951976, 37.498632937748887 ] } },
{ "type": "Feature", "properties": { "category": "cafe", "opening_year": 2024 }, "geometry": { "type": "Point", "coordinates": [ 127.037941994324711, 37.497181923146869 ] } },
{ "type": "Feature", "properties": { "category": "park", "opening_year": 2026 }, "geometry": { "type": "Point", "coordinates": [ 127.043432290950861, 37.483321091924175 ] } },
{ "type": "Feature", "properties": { "category": "restaurant", "opening_year": 2020 }, "geometry": { "type": "Point", "coordinates": [ 127.022019342608843, 37.505850298195199 ] } },
{ "type": "Feature", "properties": { "category": "school", "opening_year": 2024 }, "geometry": { "type": "Point", "coordinates": [ 127.043598967393805, 37.508605126392283 ] } },
{ "type": "Feature", "properties": { "category": "hospital", "opening_year": 2020 }, "geometry": { "type": "Point", "coordinates": [ 127.025595259355796, 37.501563610169427 ] } },
{ "type": "Feature", "properties": { "category": "restaurant", "opening_year": 2023 }, "geometry": { "type": "Point", "coordinates": [ 127.030531085124707, 37.495963322266668 ] } },
{ "type": "Feature", "properties": { "category": "bus_stop", "opening_year": 2019 }, "geometry": { "type": "Point", "coordinates": [ 127.063924388644651, 37.508181977283002 ] } },
{ "type": "Feature", "properties": { "category": "cafe", "opening_year": 2023 }, "geometry": { "type": "Point", "coordinates": [ 127.05695944015072, 37.50446244771107 ] } },
{ "type": "Feature", "properties": { "category": "park", "opening_year": 2023 }, "geometry": { "type": "Point", "coordinates": [ 127.07806106766769, 37.486587026597768 ] } },
{ "type": "Feature", "properties": { "category": "library", "opening_year": 2025 }, "geometry": { "type": "Point", "coordinates": [ 127.049193630021549, 37.508823414483551 ] } },
{ "type": "Feature", "properties": { "category": "subway", "opening_year": 2024 }, "geometry": { "type": "Point", "coordinates": [ 127.035424004476738, 37.496550342352563 ] } },
{ "type": "Feature", "properties": { "category": "subway", "opening_year": 2023 }, "geometry": { "type": "Point", "coordinates": [ 127.02, 37.504122949782989 ] } },
{ "type": "Feature", "properties": { "category": "library", "opening_year": 2020 }, "geometry": { "type": "Point", "coordinates": [ 127.028675464512361, 37.496412857686181 ] } },
{ "type": "Feature", "properties": { "category": "library", "opening_year": 2022 }, "geometry": { "type": "Point", "coordinates": [ 127.025390506259285, 37.499266222203765 ] } },
{ "type": "Feature", "properties": { "category": "restaurant", "opening_year": 2020 }, "geometry": { "type": "Point", "coordinates": [ 127.032264025456371, 37.499639064297867 ] } },
{ "type": "Feature", "properties": { "category": "cafe", "opening_year": 2019 }, "geometry": { "type": "Point", "coordinates": [ 127.026170957536152, 37.496834450039962 ] } },
{ "type": "Feature", "properties": { "category": "restaurant", "opening_year": 2023 }, "geometry": { "type": "Point", "coordinates": [ 127.061976294906913, 37.509421717310673 ] } },
{ "type": "Feature", "properties": { "category": "cafe", "opening_year": 2021 }, "geometry": { "type": "Point", "coordinates": [ 127.030670651798744, 37.488165977046691 ] } },
{ "type": "Feature", "properties": { "category": "cafe", "opening_year": 2022 }, "geometry": { "type": "Point", "coordinates": [ 127.045840129414856, 37.502343386210221 ] } },
{ "type": "Feature", "properties": { "category": "cafe", "opening_year": 2026 }, "geometry": { "type": "Point", "coordinates": [ 127.02, 37.509264571812359 ] } },
{ "type": "Feature", "properties": { "category": "bus_stop", "opening_year": 2025 }, "geometry": { "type": "Point", "coordinates": [ 127.03316463088936, 37.499717681352855 ] } },
{ "type": "Feature", "properties": { "category": "cafe", "opening_year": 2024 }, "geometry": { "type": "Point", "coordinates": [ 127.047614800790143, 37.502831315256785 ] } },
{ "type": "Feature", "properties": { "category": "restaurant", "opening_year": 2024 }, "geometry": { "type": "Point", "coordinates": [ 127.031828951837952, 37.494233366236273 ] } },
{ "type": "Feature", "properties": { "category": "restaurant", "opening_year": 2021 }, "geometry": { "type": "Point", "coordinates": [ 127.034168512512068, 37.49377311287008 ] } },
{ "type": "Feature", "properties": { "category": "restaurant", "opening_year": 2025 }, "geometry": { "type": "Point", "coordinates": [ 127.041582968082196, 37.499485899107505 ] } },
{ "type": "Feature", "properties": { "category": "grocery", "opening_year": 2022 }, "geometry": { "type": "Point", "coordinates": [ 127.044200267568201, 37.503130620967951 ] } },
{ "type": "Feature", "properties": { "category": "park", "opening_year": 2024 }, "geometry": { "type": "Point", "coordinates": [ 127.033463607157003, 37.506255972634953 ] } },
{ "type": "Feature", "properties": { "category": "cafe", "opening_year": 2025 }, "geometry": { "type": "Point", "coordinates": [ 127.051715457060197, 37.512758335738383 ] } },
{ "type": "Feature", "properties": { "category": "cafe", "opening_year": 2025 }, "geometry": { "type": "Point", "coordinates": [ 127.047722385127386, 37.508684988373865 ] } },
{ "type": "Feature", "properties": { "category": "bus_stop", "opening_year": 2025 }, "geometry": { "type": "Point", "coordinates": [ 127.02, 37.497632187308412 ] } },
{ "type": "Feature", "properties": { "category": "bus_stop", "opening_year": 2021 }, "geometry": { "type": "Point", "coordinates": [ 127.05972520286538, 37.506004278285687 ] } },
{ "type": "Feature", "properties": { "category": "shopping", "opening_year": 2024 }, "geometry": { "type": "Point", "coordinates": [ 127.05187315833561, 37.510048037886207 ] } },
{ "type": "Feature", "properties": { "category": "park", "opening_year": 2023 }, "geometry": { "type": "Point", "coordinates": [ 127.024826200374179, 37.50478813429293 ] } },
{ "type": "Feature", "properties": { "category": "cafe", "opening_year": 2020 }, "geometry": { "type": "Point", "coordinates": [ 127.052353379448846, 37.511163625291175 ] } },
{ "type": "Feature", "properties": { "category": "school", "opening_year": 2022 }, "geometry": { "type": "Point", "coordinates": [ 127.06097950391505, 37.506516225353913 ] } },
{ "type": "Feature", "properties": { "category": "restaurant", "opening_year": 2022 }, "geometry": { "type": "Point", "coordinates": [ 127.036406405356189, 37.487981372957123 ] } },
{ "type": "Feature", "properties": { "category": "restaurant", "opening_year": 2022 }, "geometry": { "type": "Point", "coordinates": [ 127.02990036318613, 37.501899296987645 ] } },
{ "type": "Feature", "properties": { "category": "park", "opening_year": 2023 }, "geometry": { "type": "Point", "coordinates": [ 127.042838470627132, 37.500710999930838 ] } },
{ "type": "Feature", "properties": { "category": "bus_stop", "opening_year": 2020 }, "geometry": { "type": "Point", "coordinates": [ 127.044373763542623, 37.504227175930261 ] } },
{ "type": "Feature", "properties": { "category": "shopping", "opening_year": 2025 }, "geometry": { "type": "Point", "coordinates": [ 127.046069029866814, 37.495985910831735 ] } },
{ "type": "Feature", "properties": { "category": "restaurant", "opening_year": 2023 }, "geometry": { "type": "Point", "coordinates": [ 127.035457304109173, 37.491490961835765 ] } },
{ "type": "Feature", "properties": { "category": "park", "opening_year": 2020 }, "geometry": { "type": "Point", "coordinates": [ 127.025637819636103, 37.506596751371248 ] } },
{ "type": "Feature", "properties": { "category": "library", "opening_year": 2020 }, "geometry": { "type": "Point", "coordinates": [ 127.067126121512345, 37.488112895865449 ] } },
{ "type": "Feature", "properties": { "category": "cafe", "opening_year": 2026 }, "geometry": { "type": "Point", "coordinates": [ 127.062825750245466, 37.490552965728234 ] } },
{ "type": "Feature", "properties": { "category": "park", "opening_year": 2021 }, "geometry": { "type": "Point", "coordinates": [ 127.023371960422793, 37.497181554344678 ] } },
{ "type": "Feature", "properties": { "category": "cafe", "opening_year": 2019 }, "geometry": { "type": "Point", "coordinates": [ 127.038127003534385, 37.485836644832339 ] } },
{ "type": "Feature", "properties": { "category": "subway", "opening_year": 2019 }, "geometry": { "type": "Point", "coordinates": [ 127.048121166031549, 37.502871258410231 ] } },
{ "type": "Feature", "properties": { "category": "school", "opening_year": 2026 }, "geometry": { "type": "Point", "coordinates": [ 127.045590695601717, 37.504791160327763 ] } },
{ "type": "Feature", "properties": { "category": "shopping", "opening_year": 2026 }, "geometry": { "type": "Point", "coordinates": [ 127.02298326899917, 37.50331434355828 ] } },
{ "type": "Feature", "properties": { "category": "restaurant", "opening_year": 2025 }, "geometry": { "type": "Point", "coordinates": [ 127.02, 37.494347464585069 ] } },
{ "type": "Feature", "properties": { "category": "shopping", "opening_year": 2019 }, "geometry": { "type": "Point", "coordinates": [ 127.058506910907738, 37.491571309873045 ] } },
{ "type": "Feature", "properties": { "category": "cafe", "opening_year": 2021 }, "geometry": { "type": "Point", "coordinates": [ 127.024014565044908, 37.490613187966275 ] } },
{ "type": "Feature", "properties": { "category": "shopping", "opening_year": 2024 }, "geometry": { "type": "Point", "coordinates": [ 127.062874300339871, 37.491711561762784 ] } },
{ "type": "Feature", "properties": { "category": "shopping", "opening_year": 2025 }, "geometry": { "type": "Point", "coordinates": [ 127.03552396993318, 37.496528855396541 ] } },
{ "type": "Feature", "properties": { "category": "grocery", "opening_year": 2023 }, "geometry": { "type": "Point", "coordinates": [ 127.062587554667459, 37.510333508452732 ] } },
{ "type": "Feature", "properties": { "category": "restaurant", "opening_year": 2022 }, "geometry": { "type": "Point", "coordinates": [ 127.035461883174321, 37.504777524540529 ] } },
{ "type": "Feature", "properties": { "category": "restaurant", "opening_year": 2023 }, "geometry": { "type": "Point", "coordinates": [ 127.024998422235711, 37.504396548608185 ] } },
{ "type": "Feature", "properties": { "category": "cafe", "opening_year": 2023 }, "geometry": { "type": "Point", "coordinates": [ 127.02396209938405, 37.496330463548041 ] } },
{ "type": "Feature", "properties": { "category": "shopping", "opening_year": 2025 }, "geometry": { "type": "Point", "coordinates": [ 127.029635960219437, 37.500651635534631 ] } },
{ "type": "Feature", "properties": { "category": "park", "opening_year": 2024 }, "geometry": { "type": "Point", "coordinates": [ 127.057011953896492, 37.511276684467902 ] } },
{ "type": "Feature", "properties": { "category": "grocery", "opening_year": 2025 }, "geometry": { "type": "Point", "coordinates": [ 127.023038034374167, 37.514890694906384 ] } },
{ "type": "Feature", "properties": { "category": "grocery", "opening_year": 2025 }, "geometry": { "type": "Point", "coordinates": [ 127.038484662571975, 37.486672867222431 ] } },
{ "type": "Feature", "properties": { "category": "subway", "opening_year": 2019 }, "geometry": { "type": "Point", "coordinates": [ 127.031290776864893, 37.503462340945255 ] } },
{ "type": "Feature", "properties": { "category": "restaurant", "opening_year": 2025 }, "geometry": { "type": "Point", "coordinates": [ 127.039123793475852, 37.499565307777814 ] } },
{ "type": "Feature", "properties": { "category": "restaurant", "opening_year": 2020 }, "geometry": { "type": "Point", "coordinates": [ 127.02, 37.491919756679096 ] } },
{ "type": "Feature", "properties": { "category": "bus_stop", "opening_year": 2026 }, "geometry": { "type": "Point", "coordinates": [ 127.046884979263751, 37.496941884648635 ] } },
{ "type": "Feature", "properties": { "category": "school", "opening_year": 2022 }, "geometry": { "type": "Point", "coordinates": [ 127.043942566283704, 37.505860320837996 ] } },
{ "type": "Feature", "properties": { "category": "grocery", "opening_year": 2020 }, "geometry": { "type": "Point", "coordinates": [ 127.05538339608907, 37.511963224486763 ] } },
{ "type": "Feature", "properties": { "category": "shopping", "opening_year": 2026 }, "geometry": { "type": "Point", "coordinates": [ 127.032986892450467, 37.504415747790496 ] } },
{ "type": "Feature", "properties": { "category": "restaurant", "opening_year": 2020 }, "geometry": { "type": "Point", "coordinates": [ 127.065651936079831, 37.49561528556827 ] } },
{ "type": "Feature", "properties": { "category": "cafe", "opening_year": 2021 }, "geometry": { "type": "Point", "coordinates": [ 127.048849372939941, 37.510258872086681 ] } },
{ "type": "Feature", "properties": { "category": "restaurant", "opening_year": 2023 }, "geometry": { "type": "Point", "coordinates": [ 127.037714003703854, 37.480636963711277 ] } },
{ "type": "Feature", "properties": { "category": "restaurant", "opening_year": 2026 }, "geometry": { "type": "Point", "coordinates": [ 127.041534438170586, 37.505653736899582 ] } },
{ "type": "Feature", "properties": { "category": "hospital", "opening_year": 2019 }, "geometry": { "type": "Point", "coordinates": [ 127.05482464024729, 37.507786489724211 ] } },
{ "type": "Feature", "properties": { "category": "subway", "opening_year": 2023 }, "geometry": { "type": "Point", "coordinates": [ 127.040641097845395, 37.503450663881537 ] } },
{ "type": "Feature", "properties": { "category": "bus_stop", "opening_year": 2024 }, "geometry": { "type": "Point", "coordinates": [ 127.059510439816393, 37.50365162331579 ] } },
{ "type": "Feature", "properties": { "category": "restaurant", "opening_year": 2026 }, "geometry": { "type": "Point", "coordinates": [ 127.039833169274402, 37.500444810747076 ] } },
{ "type": "Feature", "properties": { "category": "cafe", "opening_year": 2019 }, "geometry": { "type": "Point", "coordinates": [ 127.05130678833541, 37.512400738256083 ] } },
{ "type": "Feature", "properties": { "category": "shopping", "opening_year": 2019 }, "geometry": { "type": "Point", "coordinates": [ 127.038290567524982, 37.487651894349945 ] } },
{ "type": "Feature", "properties": { "category": "bus_stop", "opening_year": 2024 }, "geometry": { "type": "Point", "coordinates": [ 127.031001831281074, 37.501559373571347 ] } },
{ "type": "Feature", "properties": { "category": "hospital", "opening_year": 2026 }, "geometry": { "type": "Point", "coordinates": [ 127.021484895994178, 37.505953817351354 ] } },
{ "type": "Feature", "properties": { "category": "hospital", "opening_year": 2023 }, "geometry": { "type": "Point", "coordinates": [ 127.04086720187145, 37.506857585930518 ] } },
{ "type": "Feature", "properties": { "category": "bus_stop", "opening_year": 2022 }, "geometry": { "type": "Point", "coordinates": [ 127.057312690209855, 37.515244464593998 ] } },
{ "type": "Feature", "properties": { "category": "park", "opening_year": 2023 }, "geometry": { "type": "Point", "coordinates": [ 127.037389445110932, 37.498875723172617 ] } },
{ "type": "Feature", "properties": { "category": "restaurant", "opening_year": 2025 }, "geometry": { "type": "Point", "coordinates": [ 127.06824995831893, 37.482900151761434 ] } },
{ "type": "Feature", "properties": { "category": "bus_stop", "opening_year": 2025 }, "geometry": { "type": "Point", "coordinates": [ 127.023834474781381, 37.49535353886759 ] } },
{ "type": "Feature", "properties": { "category": "cafe", "opening_year": 2025 }, "geometry": { "type": "Point", "coordinates": [ 127.02, 37.500052137759717 ] } },
{ "type": "Feature", "properties": { "category": "hospital", "opening_year": 2025 }, "geometry": { "type": "Point", "coordinates": [ 127.058577932885257, 37.505573604382768 ] } },
{ "type": "Feature", "properties": { "category": "subway", "opening_year": 2019 }, "geometry": { "type": "Point", "coordinates": [ 127.023916139191655, 37.503704715396083 ] } },
{ "type": "Feature", "properties": { "category": "restaurant", "opening_year": 2026 }, "geometry": { "type": "Point", "coordinates": [ 127.02, 37.506384545173603 ] } },
{ "type": "Feature", "properties": { "category": "restaurant", "opening_year": 2026 }, "geometry": { "type": "Point", "coordinates": [ 127.049656483684913, 37.49914887867628 ] } },
{ "type": "Feature", "properties": { "category": "restaurant", "opening_year": 2026 }, "geometry": { "type": "Point", "coordinates": [ 127.024778971756277, 37.499558064095211 ] } },
{ "type": "Feature", "properties": { "category": "hospital", "opening_year": 2025 }, "geometry": { "type": "Point", "coordinates": [ 127.031077366854859, 37.499998029501143 ] } },
{ "type": "Feature", "properties": { "category": "cafe", "opening_year": 2024 }, "geometry": { "type": "Point", "coordinates": [ 127.067831761994626, 37.48865069935173 ] } },
{ "type": "Feature", "properties": { "category": "restaurant", "opening_year": 2026 }, "geometry": { "type": "Point", "coordinates": [ 127.059175307473112, 37.483077313577972 ] } },
{ "type": "Feature", "properties": { "category": "cafe", "opening_year": 2021 }, "geometry": { "type": "Point", "coordinates": [ 127.021954963597167, 37.51117155044448 ] } },
{ "type": "Feature", "properties": { "category": "restaurant", "opening_year": 2023 }, "geometry": { "type": "Point", "coordinates": [ 127.022385716512815, 37.498609584458549 ] } },
{ "type": "Feature", "properties": { "category": "restaurant", "opening_year": 2026 }, "geometry": { "type": "Point", "coordinates": [ 127.06669462304113, 37.48639030762083 ] } },
{ "type": "Feature", "properties": { "category": "grocery", "opening_year": 2025 }, "geometry": { "type": "Point", "coordinates": [ 127.026706049964076, 37.5027282673421 ] } },
{ "type": "Feature", "properties": { "category": "restaurant", "opening_year": 2022 }, "geometry": { "type": "Point", "coordinates": [ 127.057534218531643, 37.505944500703855 ] } },
{ "type": "Feature", "properties": { "category": "park", "opening_year": 2025 }, "geometry": { "type": "Point", "coordinates": [ 127.041895613696113, 37.499580754394898 ] } },
{ "type": "Feature", "properties": { "category": "school", "opening_year": 2025 }, "geometry": { "type": "Point", "coordinates": [ 127.026750511207482, 37.50950690003426 ] } },
{ "type": "Feature", "properties": { "category": "shopping", "opening_year": 2020 }, "geometry": { "type": "Point", "coordinates": [ 127.03238755516233, 37.48498358731635 ] } },
{ "type": "Feature", "properties": { "category": "restaurant", "opening_year": 2019 }, "geometry": { "type": "Point", "coordinates": [ 127.053351357633233, 37.510056308895479 ] } },
{ "type": "Feature", "properties": { "category": "restaurant", "opening_year": 2019 }, "geometry": { "type": "Point", "coordinates": [ 127.061839769718503, 37.486870334664154 ] } },
{ "type": "Feature", "properties": { "category": "cafe", "opening_year": 2020 }, "geometry": { "type": "Point", "coordinates": [ 127.021793372072878, 37.508951863566644 ] } },
{ "type": "Feature", "properties": { "category": "cafe", "opening_year": 2022 }, "geometry": { "type": "Point", "coordinates": [ 127.042695041728649, 37.496896164735539 ] } },
{ "type": "Feature", "properties": { "category": "cafe", "opening_year": 2026 }, "geometry": { "type": "Point", "coordinates": [ 127.026884908144254, 37.504445412832816 ] } },
{ "type": "Feature", "properties": { "category": "restaurant", "opening_year": 2023 }, "geometry": { "type": "Point", "coordinates": [ 127.026335859913829, 37.493036436303584 ] } },
{ "type": "Feature", "properties": { "category": "restaurant", "opening_year": 2021 }, "geometry": { "type": "Point", "coordinates": [ 127.041166318310118, 37.503615284252305 ] } },
{ "type": "Feature", "properties": { "category": "restaurant", "opening_year": 2026 }, "geometry": { "type": "Point", "coordinates": [ 127.02, 37.510344715466879 ] } },
{ "type": "Feature", "properties": { "category": "cafe", "opening_year": 2019 }, "geometry": { "type": "Point", "coordinates": [ 127.02088278474838, 37.499691254866889 ] } },
{ "type": "Feature", "properties": { "category": "cafe", "opening_year": 2019 }, "geometry": { "type": "Point", "coordinates": [ 127.029268862358734, 37.498532476339619 ] } },
{ "type": "Feature", "properties": { "category": "shopping", "opening_year": 2024 }, "geometry": { "type": "Point", "coordinates": [ 127.02, 37.501906981590608 ] } },
{ "type": "Feature", "properties": { "category": "shopping", "opening_year": 2020 }, "geometry": { "type": "Point", "coordinates": [ 127.047894208926053, 37.507723352905401 ] } },
{ "type": "Feature", "properties": { "category": "bus_stop", "opening_year": 2023 }, "geometry": { "type": "Point", "coordinates": [ 127.041941216270502, 37.504045805166683 ] } },
{ "type": "Feature", "properties": { "category": "library", "opening_year": 2022 }, "geometry": { "type": "Point", "coordinates": [ 127.06661101041243, 37.513344194734223 ] } },
{ "type": "Feature", "properties": { "category": "restaurant", "opening_year": 2022 }, "geometry": { "type": "Point", "coordinates": [ 127.049955273745226, 37.508998661068176 ] } },
{ "type": "Feature", "properties": { "category": "cafe", "opening_year": 2020 }, "geometry": { "type": "Point", "coordinates": [ 127.029644748448021, 37.490765555481147 ] } },
{ "type": "Feature", "properties": { "category": "restaurant", "opening_year": 2026 }, "geometry": { "type": "Point", "coordinates": [ 127.057390899715813, 37.510915981363539 ] } },
{ "type": "Feature", "properties": { "category": "school", "opening_year": 2021 }, "geometry": { "type": "Point", "coordinates": [ 127.055972319083608, 37.509611189107595 ] } },
{ "type": "Feature", "properties": { "category": "cafe", "opening_year": 2026 }, "geometry": { "type": "Point", "coordinates": [ 127.02, 37.504295211552737 ] } },
{ "type": "Feature", "properties": { "category": "subway", "opening_year": 2024 }, "geometry": { "type": "Point", "coordinates": [ 127.055968672634549, 37.509795149239203 ] } },
{ "type": "Feature", "properties": { "category": "shopping", "opening_year": 2022 }, "geometry": { "type": "Point", "coordinates": [ 127.054993688734356, 37.505815606973393 ] } },
{ "type": "Feature", "properties": { "category": "shopping", "opening_year": 2021 }, "geometry": { "type": "Point", "coordinates": [ 127.04517975493178, 37.508309261450023 ] } },
{ "type": "Feature", "properties": { "category": "shopping", "opening_year": 2023 }, "geometry": { "type": "Point", "coordinates": [ 127.035233479241398, 37.483519818688123 ] } },
{ "type": "Feature", "properties": { "category": "hospital", "opening_year": 2026 }, "geometry": { "type": "Point", "coordinates": [ 127.063623986669626, 37.513199918601366 ] } },
{ "type": "Feature", "properties": { "category": "park", "opening_year": 2023 }, "geometry": { "type": "Point", "coordinates": [ 127.024303387168857, 37.503691667018444 ] } },
{ "type": "Feature", "properties": { "category": "restaurant", "opening_year": 2025 }, "geometry": { "type": "Point", "coordinates": [ 127.02, 37.505745811337214 ] } },
{ "type": "Feature", "properties": { "category": "cafe", "opening_year": 2026 }, "geometry": { "type": "Point", "coordinates": [ 127.020763425993451, 37.495975035504543 ] } },
{ "type": "Feature", "properties": { "category": "hospital", "opening_year": 2026 }, "geometry": { "type": "Point", "coordinates": [ 127.028027522923594, 37.48 ] } },
{ "type": "Feature", "properties": { "category": "hospital", "opening_year": 2025 }, "geometry": { "type": "Point", "coordinates": [ 127.035694334867443, 37.505656759315713 ] } },
{ "type": "Feature", "properties": { "category": "subway", "opening_year": 2025 }, "geometry": { "type": "Point", "coordinates": [ 127.049133315410643, 37.507280773952843 ] } },
{ "type": "Feature", "properties": { "category": "cafe", "opening_year": 2026 }, "geometry": { "type": "Point", "coordinates": [ 127.036164911702116, 37.505249546701954 ] } },
{ "type": "Feature", "properties": { "category": "restaurant", "opening_year": 2022 }, "geometry": { "type": "Point", "coordinates": [ 127.046922146160213, 37.500426805401382 ] } },
{ "type": "Feature", "properties": { "category": "shopping", "opening_year": 2026 }, "geometry": { "type": "Point", "coordinates": [ 127.061007713449058, 37.505970941880193 ] } },
{ "type": "Feature", "properties": { "category": "restaurant", "opening_year": 2020 }, "geometry": { "type": "Point", "coordinates": [ 127.028451608159344, 37.504624342351086 ] } },
{ "type": "Feature", "properties": { "category": "bus_stop", "opening_year": 2021 }, "geometry": { "type": "Point", "coordinates": [ 127.030149795384617, 37.490152132269181 ] } },
{ "type": "Feature", "properties": { "category": "restaurant", "opening_year": 2021 }, "geometry": { "type": "Point", "coordinates": [ 127.027249532536857, 37.498235924013258 ] } },
{ "type": "Feature", "properties": { "category": "restaurant", "opening_year": 2019 }, "geometry": { "type": "Point", "coordinates": [ 127.025158337507378, 37.495560503460268 ] } },
{ "type": "Feature", "properties": { "category": "grocery", "opening_year": 2020 }, "geometry": { "type": "Point", "coordinates": [ 127.027345696064728, 37.504752009473336 ] } },
{ "type": "Feature", "properties": { "category": "subway", "opening_year": 2026 }, "geometry": { "type": "Point", "coordinates": [ 127.035074196093277, 37.500386319545697 ] } },
{ "type": "Feature", "properties": { "category": "cafe", "opening_year": 2020 }, "geometry": { "type": "Point", "coordinates": [ 127.0601333705945, 37.485312113628396 ] } },
{ "type": "Feature", "properties": { "category": "subway", "opening_year": 2024 }, "geometry": { "type": "Point", "coordinates": [ 127.033811963370567, 37.490793200623358 ] } },
{ "type": "Feature", "properties": { "category": "cafe", "opening_year": 2026 }, "geometry": { "type": "Point", "coordinates": [ 127.053449668236468, 37.508954324491924 ] } },
{ "type": "Feature", "properties": { "category": "restaurant", "opening_year": 2023 }, "geometry": { "type": "Point", "coordinates": [ 127.050726092243139, 37.510715502154085 ] } },
{ "type": "Feature", "properties": { "category": "bus_stop", "opening_year": 2020 }, "geometry": { "type": "Point", "coordinates": [ 127.046415345060495, 37.510353104428596 ] } },
{ "type": "Feature", "properties": { "category": "subway", "opening_year": 2021 }, "geometry": { "type": "Point", "coordinates": [ 127.027337901330171, 37.487179678323976 ] } },
{ "type": "Feature", "properties": { "category": "hospital", "opening_year": 2026 }, "geometry": { "type": "Point", "coordinates": [ 127.02633349253189, 37.502011329198986 ] } },
{ "type": "Feature", "properties": { "category": "restaurant", "opening_year": 2021 }, "geometry": { "type": "Point", "coordinates": [ 127.0292224898174, 37.489017653628501 ] } },
{ "type": "Feature", "properties": { "category": "park", "opening_year": 2023 }, "geometry": { "type": "Point", "coordinates": [ 127.022397968462073, 37.498376903444509 ] } },
{ "type": "Feature", "properties": { "category": "restaurant", "opening_year": 2020 }, "geometry": { "type": "Point", "coordinates": [ 127.021981681221476, 37.506155169268759 ] } },
{ "type": "Feature", "properties": { "category": "bus_stop", "opening_year": 2020 }, "geometry": { "type": "Point", "coordinates": [ 127.030289944395847, 37.502561230142192 ] } },
{ "type": "Feature", "properties": { "category": "cafe", "opening_year": 2020 }, "geometry": { "type": "Point", "coordinates": [ 127.048994812944883, 37.508448493030336 ] } },
{ "type": "Feature", "properties": { "category": "grocery", "opening_year": 2023 }, "geometry": { "type": "Point", "coordinates": [ 127.040318363757407, 37.488863066835975 ] } },
{ "type": "Feature", "properties": { "category": "library", "opening_year": 2025 }, "geometry": { "type": "Point", "coordinates": [ 127.025015047541601, 37.49277762249659 ] } },
{ "type": "Feature", "properties": { "category": "restaurant", "opening_year": 2019 }, "geometry": { "type": "Point", "coordinates": [ 127.025710611605646, 37.50641011734907 ] } },
{ "type": "Feature", "properties": { "category": "hospital", "opening_year": 2025 }, "geometry": { "type": "Point", "coordinates": [ 127.033495819210557, 37.50977168124961 ] } },
{ "type": "Feature", "properties": { "category": "shopping", "opening_year": 2019 }, "geometry": { "type": "Point", "coordinates": [ 127.028386162697174, 37.493890624077238 ] } },
{ "type": "Feature", "properties": { "category": "restaurant", "opening_year": 2020 }, "geometry": { "type": "Point", "coordinates": [ 127.065265007571952, 37.487031231624009 ] } },
{ "type": "Feature", "properties": { "category": "bus_stop", "opening_year": 2022 }, "geometry": { "type": "Point", "coordinates": [ 127.026962908416266, 37.498792488073626 ] } },
{ "type": "Feature", "properties": { "category": "shopping", "opening_year": 2023 }, "geometry": { "type": "Point", "coordinates": [ 127.053928075292418, 37.502350652511176 ] } },
{ "type": "Feature", "properties": { "category": "school", "opening_year": 2026 }, "geometry": { "type": "Point", "coordinates": [ 127.057615708456467, 37.490917926861854 ] } },
{ "type": "Feature", "properties": { "category": "hospital", "opening_year": 2026 }, "geometry": { "type": "Point", "coordinates": [ 127.02, 37.499224160619988 ] } },
{ "type": "Feature", "properties": { "category": "bus_stop", "opening_year": 2022 }, "geometry": { "type": "Point", "coordinates": [ 127.020103259047644, 37.507982222437676 ] } },
{ "type": "Feature", "properties": { "category": "hospital", "opening_year": 2023 }, "geometry": { "type": "Point", "coordinates": [ 127.046641594910227, 37.5054108806521 ] } },
{ "type": "Feature", "properties": { "category": "restaurant", "opening_year": 2023 }, "geometry": { "type": "Point", "coordinates": [ 127.03994251879125, 37.486662869415895 ] } },
{ "type": "Feature", "properties": { "category": "school", "opening_year": 2024 }, "geometry": { "type": "Point", "coordinates": [ 127.023017959747193, 37.50586083990747 ] } },
{ "type": "Feature", "properties": { "category": "cafe", "opening_year": 2025 }, "geometry": { "type": "Point", "coordinates": [ 127.058173055620742, 37.503860747652354 ] } },
{ "type": "Feature", "properties": { "category": "cafe", "opening_year": 2022 }, "geometry": { "type": "Point", "coordinates": [ 127.041029737742491, 37.499915819357284 ] } },
{ "type": "Feature", "properties": { "category": "bus_stop", "opening_year": 2021 }, "geometry": { "type": "Point", "coordinates": [ 127.031318211792907, 37.499259501444769 ] } },
{ "type": "Feature", "properties": { "category": "shopping", "opening_year": 2021 }, "geometry": { "type": "Point", "coordinates": [ 127.043252279949328, 37.507342246990945 ] } },
{ "type": "Feature", "properties": { "category": "restaurant", "opening_year": 2025 }, "geometry": { "type": "Point", "coordinates": [ 127.062173193648732, 37.513550537570886 ] } },
{ "type": "Feature", "properties": { "category": "shopping", "opening_year": 2023 }, "geometry": { "type": "Point", "coordinates": [ 127.024432494176054, 37.497894429394229 ] } },
{ "type": "Feature", "properties": { "category": "shopping", "opening_year": 2023 }, "geometry": { "type": "Point", "coordinates": [ 127.039064408212155, 37.483080832731474 ] } },
{ "type": "Feature", "properties": { "category": "bus_stop", "opening_year": 2026 }, "geometry": { "type": "Point", "coordinates": [ 127.051326059251835, 37.505363175925702 ] } },
{ "type": "Feature", "properties": { "category": "hospital", "opening_year": 2025 }, "geometry": { "type": "Point", "coordinates": [ 127.049925073491721, 37.499032977884482 ] } },
{ "type": "Feature", "properties": { "category": "school", "opening_year": 2022 }, "geometry": { "type": "Point", "coordinates": [ 127.02, 37.51038805826596 ] } },
{ "type": "Feature", "properties": { "category": "cafe", "opening_year": 2025 }, "geometry": { "type": "Point", "coordinates": [ 127.03906836090917, 37.500185259582551 ] } },
{ "type": "Feature", "properties": { "category": "restaurant", "opening_year": 2025 }, "geometry": { "type": "Point", "coordinates": [ 127.043433797278723, 37.503758992614394 ] } },
{ "type": "Feature", "properties": { "category": "cafe", "opening_year": 2022 }, "geometry": { "type": "Point", "coordinates": [ 127.046835862921085, 37.50321245720518 ] } },
{ "type": "Feature", "properties": { "category": "restaurant", "opening_year": 2024 }, "geometry": { "type": "Point", "coordinates": [ 127.061322732079688, 37.49090714418444 ] } },
{ "type": "Feature", "properties": { "category": "cafe", "opening_year": 2025 }, "geometry": { "type": "Point", "coordinates": [ 127.043611800939871, 37.487875009921602 ] } },
{ "type": "Feature", "properties": { "category": "cafe", "opening_year": 2026 }, "geometry": { "type": "Point", "coordinates": [ 127.037062374353667, 37.499166667348689 ] } },
{ "type": "Feature", "properties": { "category": "grocery", "opening_year": 2025 }, "geometry": { "type": "Point", "coordinates": [ 127.025939799459493, 37.49551564440138 ] } },
{ "type": "Feature", "properties": { "category": "cafe", "opening_year": 2025 }, "geometry": { "type": "Point", "coordinates": [ 127.051963670380147, 37.513705171822593 ] } },
{ "type": "Feature", "properties": { "category": "restaurant", "opening_year": 2019 }, "geometry": { "type": "Point", "coordinates": [ 127.074251759980882, 37.494520397265617 ] } },
{ "type": "Feature", "properties": { "category": "library", "opening_year": 2025 }, "geometry": { "type": "Point", "coordinates": [ 127.049315973952716, 37.511602892627437 ] } },
{ "type": "Feature", "properties": { "category": "park", "opening_year": 2023 }, "geometry": { "type": "Point", "coordinates": [ 127.028041320976158, 37.510449593158746 ] } },
{ "type": "Feature", "properties": { "category": "cafe", "opening_year": 2020 }, "geometry": { "type": "Point", "coordinates": [ 127.035612187783443, 37.487215954865356 ] } },
{ "type": "Feature", "properties": { "category": "cafe", "opening_year": 2023 }, "geometry": { "type": "Point", "coordinates": [ 127.02, 37.506301269112178 ] } },
{ "type": "Feature", "properties": { "category": "library", "opening_year": 2020 }, "geometry": { "type": "Point", "coordinates": [ 127.046194945520909, 37.502919379482648 ] } },
{ "type": "Feature", "properties": { "category": "grocery", "opening_year": 2025 }, "geometry": { "type": "Point", "coordinates": [ 127.02, 37.494323170592082 ] } },
{ "type": "Feature", "properties": { "category": "restaurant", "opening_year": 2025 }, "geometry": { "type": "Point", "coordinates": [ 127.026610373347623, 37.503053776997277 ] } },
{ "type": "Feature", "properties": { "category": "restaurant", "opening_year": 2021 }, "geometry": { "type": "Point", "coordinates": [ 127.023022777509723, 37.511375180012202 ] } },
{ "type": "Feature", "properties": { "category": "cafe", "opening_year": 2021 }, "geometry": { "type": "Point", "coordinates": [ 127.027687167291631, 37.500660417699059 ] } },
{ "type": "Feature", "properties": { "category": "bus_stop", "opening_year": 2020 }, "geometry": { "type": "Point", "coordinates": [ 127.033781172418927, 37.498636231325086 ] } },
{ "type": "Feature", "properties": { "category": "subway", "opening_year": 2026 }, "geometry": { "type": "Point", "coordinates": [ 127.060086901033998, 37.509242452490312 ] } },
{ "type": "Feature", "properties": { "category": "school", "opening_year": 2022 }, "geometry": { "type": "Point", "coordinates": [ 127.026493894979041, 37.482151718294503 ] } },
{ "type": "Feature", "properties": { "category": "library", "opening_year": 2025 }, "geometry": { "type": "Point", "coordinates": [ 127.041389051806135, 37.500556633285903 ] } },
{ "type": "Feature", "properties": { "category": "grocery", "opening_year": 2021 }, "geometry": { "type": "Point", "coordinates": [ 127.025418500258169, 37.493303184011246 ] } },
{ "type": "Feature", "properties": { "category": "shopping", "opening_year": 2022 }, "geometry": { "type": "Point", "coordinates": [ 127.022490896810027, 37.498099176603823 ] } },
{ "type": "Feature", "properties": { "category": "shopping", "opening_year": 2025 }, "geometry": { "type": "Point", "coordinates": [ 127.038904831752447, 37.495518044063367 ] } },
{ "type": "Feature", "properties": { "category": "subway", "opening_year": 2024 }, "geometry": { "type": "Point", "coordinates": [ 127.027536167940298, 37.492394450003687 ] } },
{ "type": "Feature", "properties": { "category": "grocery", "opening_year": 2026 }, "geometry": { "type": "Point", "coordinates": [ 127.026754072615347, 37.504027115562408 ] } },
{ "type": "Feature", "properties": { "category": "cafe", "opening_year": 2025 }, "geometry": { "type": "Point", "coordinates": [ 127.039202760911138, 37.505741938403133 ] } },
{ "type": "Feature", "properties": { "category": "restaurant", "opening_year": 2021 }, "geometry": { "type": "Point", "coordinates": [ 127.021250313694978, 37.492609835466837 ] } },
{ "type": "Feature", "properties": { "category": "restaurant", "opening_year": 2019 }, "geometry": { "type": "Point", "coordinates": [ 127.023696618277569, 37.495203150153102 ] } },
{ "type": "Feature", "properties": { "category": "cafe", "opening_year": 2026 }, "geometry": { "type": "Point", "coordinates": [ 127.038185066427118, 37.504347036217617 ] } },
{ "type": "Feature", "properties": { "category": "cafe", "opening_year": 2024 }, "geometry": { "type": "Point", "coordinates": [ 127.02, 37.481387962892605 ] } },
{ "type": "Feature", "properties": { "category": "library", "opening_year": 2024 }, "geometry": { "type": "Point", "coordinates": [ 127.035549734076298, 37.497722255329187 ] } },
{ "type": "Feature", "properties": { "category": "restaurant", "opening_year": 2026 }, "geometry": { "type": "Point", "coordinates": [ 127.061394618028174, 37.492095803816774 ] } },
{ "type": "Feature", "properties": { "category": "bus_stop", "opening_year": 2023 }, "geometry": { "type": "Point", "coordinates": [ 127.059297126551442, 37.506601789515479 ] } },
{ "type": "Feature", "properties": { "category": "restaurant", "opening_year": 2024 }, "geometry": { "type": "Point", "coordinates": [ 127.02, 37.504846022167683 ] } },
{ "type": "Feature", "properties": { "category": "cafe", "opening_year": 2026 }, "geometry": { "type": "Point", "coordinates": [ 127.031023222216831, 37.50037276285866 ] } },
{ "type": "Feature", "properties": { "category": "restaurant", "opening_year": 2024 }, "geometry": { "type": "Point", "coordinates": [ 127.06600151725722, 37.506676093981781 ] } },
{ "type": "Feature", "properties": { "category": "restaurant", "opening_year": 2023 }, "geometry": { "type": "Point", "coordinates": [ 127.024153818841341, 37.486213741959133 ] } },
{ "type": "Feature", "properties": { "category": "shopping", "opening_year": 2022 }, "geometry": { "type": "Point", "coordinates": [ 127.051118534064216, 37.510007882970079 ] } },
{ "type": "Feature", "properties": { "category": "cafe", "opening_year": 2025 }, "geometry": { "type": "Point", "coordinates": [ 127.036168770428944, 37.507758592167725 ] } },
{ "type": "Feature", "properties": { "category": "hospital", "opening_year": 2021 }, "geometry": { "type": "Point", "coordinates": [ 127.027774668058456, 37.50271136937068 ] } },
{ "type": "Feature", "properties": { "category": "school", "opening_year": 2019 }, "geometry": { "type": "Point", "coordinates": [ 127.051272489207491, 37.506600996022314 ] } },
{ "type": "Feature", "properties": { "category": "shopping", "opening_year": 2019 }, "geometry": { "type": "Point", "coordinates": [ 127.0645503318609, 37.491492209273737 ] } },
{ "type": "Feature", "properties": { "category": "cafe", "opening_year": 2025 }, "geometry": { "type": "Point", "coordinates": [ 127.03732042185483, 37.499354792601373 ] } },
{ "type": "Feature", "properties": { "category": "cafe", "opening_year": 2025 }, "geometry": { "type": "Point", "coordinates": [ 127.035215384430813, 37.507183354620878 ] } },
{ "type": "Feature", "properties": { "category": "shopping", "opening_year": 2021 }, "geometry": { "type": "Point", "coordinates": [ 127.036260597734895, 37.508814037641606 ] } },
{ "type": "Feature", "properties": { "category": "grocery", "opening_year": 2026 }, "geometry": { "type": "Point", "coordinates": [ 127.025232562888789, 37.489383208443201 ] } },
{ "type": "Feature", "properties": { "category": "shopping", "opening_year": 2026 }, "geometry": { "type": "Point", "coordinates": [ 127.062831498646162, 37.485370141471066 ] } },
{ "type": "Feature", "properties": { "category": "grocery", "opening_year": 2024 }, "geometry": { "type": "Point", "coordinates": [ 127.021122991191064, 37.503257081753425 ] } },
{ "type": "Feature", "properties": { "category": "restaurant", "opening_year": 2023 }, "geometry": { "type": "Point", "coordinates": [ 127.060821488243988, 37.494931607736412 ] } },
{ "type": "Feature", "properties": { "category": "restaurant", "opening_year": 2022 }, "geometry": { "type": "Point", "coordinates": [ 127.032427421809516, 37.495199544191429 ] } },
{ "type": "Feature", "properties": { "category": "grocery", "opening_year": 2025 }, "geometry": { "type": "Point", "coordinates": [ 127.033782348337951, 37.488404177478486 ] } },
{ "type": "Feature", "properties": { "category": "shopping", "opening_year": 2019 }, "geometry": { "type": "Point", "coordinates": [ 127.024235475015473, 37.497811008820605 ] } },
{ "type": "Feature", "properties": { "category": "cafe", "opening_year": 2021 }, "geometry": { "type": "Point", "coordinates": [ 127.02475760294098, 37.498144409743283 ] } },
{ "type": "Feature", "properties": { "category": "restaurant", "opening_year": 2025 }, "geometry": { "type": "Point", "coordinates": [ 127.029951403917096, 37.504306174416321 ] } },
{ "type": "Feature", "properties": { "category": "subway", "opening_year": 2024 }, "geometry": { "type": "Point", "coordinates": [ 127.069611316671043, 37.492631552041736 ] } },
{ "type": "Feature", "properties": { "category": "grocery", "opening_year": 2026 }, "geometry": { "type": "Point", "coordinates": [ 127.025566778389475, 37.506255964117557 ] } },
{ "type": "Feature", "properties": { "category": "restaurant", "opening_year": 2026 }, "geometry": { "type": "Point", "coordinates": [ 127.068761060822325, 37.487070858474397 ] } },
{ "type": "Feature", "properties": { "category": "cafe", "opening_year": 2019 }, "geometry": { "type": "Point", "coordinates": [ 127.030973637231497, 37.492732470927074 ] } },
{ "type": "Feature", "properties": { "category": "bus_stop", "opening_year": 2024 }, "geometry": { "type": "Point", "coordinates": [ 127.050097065973191, 37.502495151584867 ] } },
{ "type": "Feature", "properties": { "category": "bus_stop", "opening_year": 2022 }, "geometry": { "type": "Point", "coordinates": [ 127.020733160803445, 37.508165245764296 ] } },
{ "type": "Feature", "properties": { "category": "cafe", "opening_year": 2026 }, "geometry": { "type": "Point", "coordinates": [ 127.029861686714185, 37.493392048359198 ] } },
{ "type": "Feature", "properties": { "category": "subway", "opening_year": 2026 }, "geometry": { "type": "Point", "coordinates": [ 127.046811471345237, 37.512116484284263 ] } },
{ "type": "Feature", "properties": { "category": "shopping", "opening_year": 2026 }, "geometry": { "type": "Point", "coordinates": [ 127.029787206934202, 37.50012430109529 ] } },
{ "type": "Feature", "properties": { "category": "restaurant", "opening_year": 2022 }, "geometry": { "type": "Point", "coordinates": [ 127.074156203459466, 37.48 ] } },
{ "type": "Feature", "properties": { "category": "cafe", "opening_year": 2025 }, "geometry": { "type": "Point", "coordinates": [ 127.036965098349398, 37.50579503108964 ] } },
{ "type": "Feature", "properties": { "category": "cafe", "opening_year": 2020 }, "geometry": { "type": "Point", "coordinates": [ 127.02, 37.510409574536681 ] } },
{ "type": "Feature", "properties": { "category": "grocery", "opening_year": 2026 }, "geometry": { "type": "Point", "coordinates": [ 127.038773905368373, 37.500310609785224 ] } },
{ "type": "Feature", "properties": { "category": "cafe", "opening_year": 2019 }, "geometry": { "type": "Point", "coordinates": [ 127.073895184450521, 37.488704060898016 ] } },
{ "type": "Feature", "properties": { "category": "grocery", "opening_year": 2024 }, "geometry": { "type": "Point", "coordinates": [ 127.031768023669784, 37.498923627400416 ] } },
{ "type": "Feature", "properties": { "category": "subway", "opening_year": 2026 }, "geometry": { "type": "Point", "coordinates": [ 127.025086907536462, 37.506818927365643 ] } },
{ "type": "Feature", "properties": { "category": "restaurant", "opening_year": 2026 }, "geometry": { "type": "Point", "coordinates": [ 127.031287047164213, 37.509717094442223 ] } },
{ "type": "Feature", "properties": { "category": "cafe", "opening_year": 2022 }, "geometry": { "type": "Point", "coordinates": [ 127.035096643050693, 37.499962364691839 ] } },
{ "type": "Feature", "properties": { "category": "restaurant", "opening_year": 2025 }, "geometry": { "type": "Point", "coordinates": [ 127.050431338261177, 37.512097708249541 ] } },
{ "type": "Feature", "properties": { "category": "cafe", "opening_year": 2023 }, "geometry": { "type": "Point", "coordinates": [ 127.025974431219055, 37.494184043331479 ] } },
{ "type": "Feature", "properties": { "category": "bus_stop", "opening_year": 2023 }, "geometry": { "type": "Point", "coordinates": [ 127.022499307300635, 37.502740049181881 ] } },
{ "type": "Feature", "properties": { "category": "shopping", "opening_year": 2021 }, "geometry": { "type": "Point", "coordinates": [ 127.02, 37.505942366710627 ] } },
{ "type": "Feature", "properties": { "category": "grocery", "opening_year": 2026 }, "geometry": { "type": "Point", "coordinates": [ 127.057640242378895, 37.518103119167527 ] } },
{ "type": "Feature", "properties": { "category": "school", "opening_year": 2025 }, "geometry": { "type": "Point", "coordinates": [ 127.021046729930873, 37.506539592993903 ] } },
{ "type": "Feature", "properties": { "category": "shopping", "opening_year": 2022 }, "geometry": { "type": "Point", "coordinates": [ 127.022314740649335, 37.513698356372153 ] } },
{ "type": "Feature", "properties": { "category": "restaurant", "opening_year": 2023 }, "geometry": { "type": "Point", "coordinates": [ 127.061677763439491, 37.505901555793933 ] } },
{ "type": "Feature", "properties": { "category": "restaurant", "opening_year": 2021 }, "geometry": { "type": "Point", "coordinates": [ 127.047541539012016, 37.498854426659662 ] } },
{ "type": "Feature", "properties": { "category": "shopping", "opening_year": 2025 }, "geometry": { "type": "Point", "coordinates": [ 127.047956912156693, 37.508500175686827 ] } },
{ "type": "Feature", "properties": { "category": "bus_stop", "opening_year": 2020 }, "geometry": { "type": "Point", "coordinates": [ 127.034023206020194, 37.495283995000904 ] } },
{ "type": "Feature", "properties": { "category": "subway", "opening_year": 2025 }, "geometry": { "type": "Point", "coordinates": [ 127.030299870048083, 37.500153252294069 ] } },
{ "type": "Feature", "properties": { "category": "grocery", "opening_year": 2020 }, "geometry": { "type": "Point", "coordinates": [ 127.051043082086636, 37.512312234315637 ] } },
{ "type": "Feature", "properties": { "category": "shopping", "opening_year": 2025 }, "geometry": { "type": "Point", "coordinates": [ 127.032702241470844, 37.500709258898695 ] } },
{ "type": "Feature", "properties": { "category": "hospital", "opening_year": 2025 }, "geometry": { "type": "Point", "coordinates": [ 127.020976068187778, 37.499191189856376 ] } },
{ "type": "Feature", "properties": { "category": "restaurant", "opening_year": 2021 }, "geometry": { "type": "Point", "coordinates": [ 127.02, 37.502001586367136 ] } },
{ "type": "Feature", "properties": { "category": "hospital", "opening_year": 2022 }, "geometry": { "type": "Point", "coordinates": [ 127.025992316646409, 37.496071230610681 ] } },
{ "type": "Feature", "properties": { "category": "restaurant", "opening_year": 2022 }, "geometry": { "type": "Point", "coordinates": [ 127.03680747901501, 37.502992513518564 ] } },
{ "type": "Feature", "properties": { "category": "grocery", "opening_year": 2024 }, "geometry": { "type": "Point", "coordinates": [ 127.037661747746512, 37.497940493752409 ] } },
{ "type": "Feature", "properties": { "category": "subway", "opening_year": 2026 }, "geometry": { "type": "Point", "coordinates": [ 127.027391916498928, 37.48 ] } },
{ "type": "Feature", "properties": { "category": "cafe", "opening_year": 2023 }, "geometry": { "type": "Point", "coordinates": [ 127.053773274234189, 37.508794079346067 ] } },
{ "type": "Feature", "properties": { "category": "shopping", "opening_year": 2026 }, "geometry": { "type": "Point", "coordinates": [ 127.026332161371045, 37.505737566280629 ] } },
{ "type": "Feature", "properties": { "category": "subway", "opening_year": 2026 }, "geometry": { "type": "Point", "coordinates": [ 127.021843433481152, 37.500896891708805 ] } },
{ "type": "Feature", "properties": { "category": "restaurant", "opening_year": 2021 }, "geometry": { "type": "Point", "coordinates": [ 127.033434601061998, 37.49025969042053 ] } },
{ "type": "Feature", "properties": { "category": "shopping", "opening_year": 2022 }, "geometry": { "type": "Point", "coordinates": [ 127.054480047052081, 37.50167704756975 ] } },
{ "type": "Feature", "properties": { "category": "bus_stop", "opening_year": 2023 }, "geometry": { "type": "Point", "coordinates": [ 127.02, 37.495002629922368 ] } },
{ "type": "Feature", "properties": { "category": "cafe", "opening_year": 2025 }, "geometry": { "type": "Point", "coordinates": [ 127.043529773351295, 37.501085558058961 ] } },
{ "type": "Feature", "properties": { "category": "school", "opening_year": 2025 }, "geometry": { "type": "Point", "coordinates": [ 127.03404776122477, 37.501359697248155 ] } },
{ "type": "Feature", "properties": { "category": "restaurant", "opening_year": 2023 }, "geometry": { "type": "Point", "coordinates": [ 127.032591121016168, 37.496146104800829 ] } },
{ "type": "Feature", "properties": { "category": "park", "opening_year": 2022 }, "geometry": { "type": "Point", "coordinates": [ 127.023150772267286, 37.503620256818934 ] } }
]
}
