{
"type": "FeatureCollection",
"name": "gangnam_isochrone_gangnam_stn",
"crs": { "type": "name", "properties": { "name": "urn:ogc:def:crs:OGC:1.3:CRS84" } },
"features": [
{ "type": "Feature", "properties": { "minutes": 20 }, "geometry": { "type": "Polygon", "coordinates": [ [ [ 127.028, 37.4848 ], [ 127.0232, 37.488 ], [ 127.0216, 37.4896 ], [ 127.02, 37.4912 ], [ 127.02, 37.504 ], [ 127.0232, 37.5072 ], [ 127.028, 37.5104 ], [ 127.0328, 37.5072 ], [ 127.0408, 37.5008 ], [ 127.044, 37.4976 ], [ 127.0424, 37.496 ], [ 127.0408, 37.4944 ], [ 127.0328, 37.488 ], [ 127.028, 37.4848 ] ] ] } },
{ "type": "Feature", "properties": { "minutes": 15 }, "geometry": { "type": "Polygon", "coordinates": [ [ [ 127.028, 37.488 ], [ 127.0216, 37.4928 ], [ 127.02, 37.4944 ], [ 127.02, 37.5008 ], [ 127.0216, 37.5024 ], [ 127.028, 37.5072 ], [ 127.0344, 37.5024 ], [ 127.0392, 37.4976 ], [ 127.0376, 37.496 ], [ 127.036, 37.4944 ], [ 127.0344, 37.4928 ], [ 127.028, 37.488 ] ] ] } },
{ "type": "Feature", "properties": { "minutes": 10 }, "geometry": { "type": "Polygon", "coordinates": [ [ [ 127.028, 37.4912 ], [ 127.0216, 37.496 ], [ 127.02, 37.4976 ], [ 127.0216, 37.4992 ], [ 127.028, 37.504 ], [ 127.0344, 37.4992 ], [ 127.036, 37.4976 ], [ 127.0344, 37.496 ], [ 127.028, 37.4912 ] ] ] } },
{ "type": "Feature", "properties": { "minutes": 5 }, "geometry": { "type": "Polygon", "coordinates": [ [ [ 127.028, 37.4944 ], [ 127.0264, 37.496 ], [ 127.0248, 37.4976 ], [ 127.028, 37.5008 ], [ 127.0312, 37.4976 ], [ 127.0296, 37.496 ], [ 127.028, 37.4944 ] ] ] } }
]
}
