{
"type": "FeatureCollection",
"name": "gangnam_isochrone_gangnam_stn",
"crs": { "type": "name", "properties": { "name": "urn:ogc:def:crs:OGC:1.3:CRS84" } },
"features": [
{ "type": "Feature", "properties": { "minutes": 20 }, "geometry": { "type": "Polygon", "coordinates": [ [ [ 127.0335006, 37.4854006 ], [ 127.0316989, 37.4858931 ], [ 127.02159810000002, 37.488762699999988 ], [ 127.0201444, 37.4892394 ], [ 127.0138048, 37.49308030000001 ], [ 127.013819700000013, 37.493891 ], [ 127.0192594, 37.5067947 ], [ 127.019744200000019, 37.5076311 ], [ 127.0201558, 37.508305 ], [ 127.0206126, 37.5089739 ], [ 127.02106910000002, 37.5093274 ], [ 127.022873, 37.5098753 ], [ 127.023491, 37.5100561 ], [ 127.0308142, 37.509072 ], [ 127.033618099999984, 37.507924 ], [ 127.0412451, 37.503931799999989 ], [ 127.043433399999984, 37.5026935 ], [ 127.040645200000014, 37.496046 ], [ 127.035268800000011, 37.48738310000001 ], [ 127.0337759, 37.4855422 ], [ 127.0335006, 37.4854006 ] ] ] } },
{ "type": "Feature", "properties": { "minutes": 15 }, "geometry": { "type": "Polygon", "coordinates": [ [ [ 127.032187, 37.4885684 ], [ 127.0233, 37.4913033 ], [ 127.02079950000001, 37.4920813 ], [ 127.0205286, 37.492168 ], [ 127.0172056, 37.493687 ], [ 127.016559200000017, 37.4949895 ], [ 127.0177795, 37.4985674 ], [ 127.020835, 37.5040719 ], [ 127.022603, 37.5064314 ], [ 127.023109300000016, 37.5070048 ], [ 127.023327, 37.507172 ], [ 127.03045, 37.5062216 ], [ 127.031932, 37.5055981 ], [ 127.039070099999989, 37.501628 ], [ 127.0391975, 37.5013966 ], [ 127.0392404, 37.5013119 ], [ 127.03719190000001, 37.4962151 ], [ 127.032187, 37.4885684 ] ] ] } },
{ "type": "Feature", "properties": { "minutes": 10 }, "geometry": { "type": "Polygon", "coordinates": [ [ [ 127.0306305, 37.4919166 ], [ 127.028516700000011, 37.4922834 ], [ 127.021407699999983, 37.4947875 ], [ 127.0206492, 37.4952176 ], [ 127.020205, 37.4963513 ], [ 127.0210475, 37.4984199 ], [ 127.0234219, 37.5027062 ], [ 127.0240573, 37.5033751 ], [ 127.024893, 37.5039452 ], [ 127.0250359, 37.5040292 ], [ 127.0256513, 37.5039955 ], [ 127.0270346, 37.5038134 ], [ 127.029757600000011, 37.5031414 ], [ 127.0355318, 37.5002757 ], [ 127.0317745, 37.4935763 ], [ 127.0306305, 37.4919166 ] ] ] } },
{ "type": "Feature", "properties": { "minutes": 5 }, "geometry": { "type": "Polygon", "coordinates": [ [ [ 127.0289478, 37.4949431 ], [ 127.026803, 37.4955801 ], [ 127.0237873, 37.4966357 ], [ 127.0237834, 37.4966439 ], [ 127.024043, 37.4974699 ], [ 127.0260353, 37.5006742 ], [ 127.026158, 37.5007139 ], [ 127.0272634, 37.5006152 ], [ 127.030111, 37.4996444 ], [ 127.0311772, 37.4992419 ], [ 127.0313325, 37.4989289 ], [ 127.0302159, 37.4968648 ], [ 127.0291589, 37.4952286 ], [ 127.0289478, 37.4949431 ] ] ] } }
]
}
